{"type": "FeatureCollection", "features": [{"type": "Feature", "geometry": {"type": "Point", "coordinates": [101.892949, -0.954404]}, "properties": {"name": "Indonesia", "min_label": 1.7, "max_label": 6.7}}, {"type": "Feature", "geometry": {"type": "Point", "coordinates": [113.83708, 2.528667]}, "properties": {"name": "Malaysia", "min_label": 3.0, "max_label": 8.0}}, {"type": "Feature", "geometry": {"type": "Point", "coordinates": [-72.318871, -38.151771]}, "properties": {"name": "Chile", "min_label": 1.7, "max_label": 6.7}}, {"type": "Feature", "geometry": {"type": "Point", "coordinates": [-64.593433, -16.666015]}, "properties": {"name": "Bolivia", "min_label": 3.0, "max_label": 7.5}}, {"type": "Feature", "geometry": {"type": "Point", "coordinates": [-72.90016, -12.976679]}, "properties": {"name": "Peru", "min_label": 2.0, "max_label": 7.0}}, {"type": "Feature", "geometry": {"type": "Point", "coordinates": [-64.173331, -33.501159]}, "properties": {"name": "Argentina", "min_label": 2.0, "max_label": 7.0}}, {"type": "Feature", "geometry": {"type": "Point", "coordinates": [33.790583, 35.011042]}, "properties": {"name": "Dhekelia", "min_label": 6.5, "max_label": 11.0}}, {"type": "Feature", "geometry": {"type": "Point", "coordinates": [33.084182, 34.913329]}, "properties": {"name": "Cyprus", "min_label": 4.5, "max_label": 9.5}}, {"type": "Feature", "geometry": {"type": "Point", "coordinates": [79.358105, 22.686852]}, "properties": {"name": "India", "min_label": 1.7, "max_label": 6.7}}, {"type": "Feature", "geometry": {"type": "Point", "coordinates": [106.337289, 32.498178]}, "properties": {"name": "China", "min_label": 1.7, "max_label": 5.7}}, {"type": "Feature", "geometry": {"type": "Point", "coordinates": [34.847915, 30.911148]}, "properties": {"name": "Israel", "min_label": 3.0, "max_label": 8.0}}, {"type": "Feature", "geometry": {"type": "Point", "coordinates": [35.291341, 32.047431]}, "properties": {"name": "Palestine", "min_label": 4.5, "max_label": 9.5}}, {"type": "Feature", "geometry": {"type": "Point", "coordinates": [35.992892, 34.133368]}, "properties": {"name": "Lebanon", "min_label": 4.0, "max_label": 9.0}}, {"type": "Feature", "geometry": {"type": "Point", "coordinates": [39.0886, 8.032795]}, "properties": {"name": "Ethiopia", "min_label": 2.0, "max_label": 7.0}}, {"type": "Feature", "geometry": {"type": "Point", "coordinates": [30.390151, 7.230477]}, "properties": {"name": "S. Sudan", "min_label": 3.0, "max_label": 8.0}}, {"type": "Feature", "geometry": {"type": "Point", "coordinates": [45.19238, 3.568925]}, "properties": {"name": "Somalia", "min_label": 4.0, "max_label": 9.0}}, {"type": "Feature", "geometry": {"type": "Point", "coordinates": [37.907632, 0.549043]}, "properties": {"name": "Kenya", "min_label": 1.7, "max_label": 6.7}}, {"type": "Feature", "geometry": {"type": "Point", "coordinates": [33.608082, -13.386737]}, "properties": {"name": "Malawi", "min_label": 4.0, "max_label": 9.0}}, {"type": "Feature", "geometry": {"type": "Point", "coordinates": [34.959183, -6.051866]}, "properties": {"name": "Tanzania", "min_label": 3.0, "max_label": 8.0}}, {"type": "Feature", "geometry": {"type": "Point", "coordinates": [38.277783, 35.006636]}, "properties": {"name": "Syria", "min_label": 3.0, "max_label": 8.0}}, {"type": "Feature", "geometry": {"type": "Point", "coordinates": [46.731595, 9.443889]}, "properties": {"name": "Somaliland", "min_label": 4.5, "max_label": 9.0}}, {"type": "Feature", "geometry": {"type": "Point", "coordinates": [2.552275, 46.696113]}, "properties": {"name": "France", "min_label": 1.7, "max_label": 6.7}}, {"type": "Feature", "geometry": {"type": "Point", "coordinates": [-55.91094, 4.143987]}, "properties": {"name": "Suriname", "min_label": 4.0, "max_label": 9.0}}, {"type": "Feature", "geometry": {"type": "Point", "coordinates": [-58.942643, 5.124317]}, "properties": {"name": "Guyana", "min_label": 4.0, "max_label": 9.0}}, {"type": "Feature", "geometry": {"type": "Point", "coordinates": [128.129504, 36.384924]}, "properties": {"name": "South Korea", "min_label": 2.5, "max_label": 7.0}}, {"type": "Feature", "geometry": {"type": "Point", "coordinates": [126.444516, 39.885252]}, "properties": {"name": "North Korea", "min_label": 3.0, "max_label": 8.0}}, {"type": "Feature", "geometry": {"type": "Point", "coordinates": [-7.187296, 31.650723]}, "properties": {"name": "Morocco", "min_label": 2.7, "max_label": 8.0}}, {"type": "Feature", "geometry": {"type": "Point", "coordinates": [-12.630304, 23.967592]}, "properties": {"name": "W. Sahara", "min_label": 6.0, "max_label": 11.0}}, {"type": "Feature", "geometry": {"type": "Point", "coordinates": [-84.077922, 10.0651]}, "properties": {"name": "Costa Rica", "min_label": 2.5, "max_label": 8.0}}, {"type": "Feature", "geometry": {"type": "Point", "coordinates": [-85.069347, 12.670697]}, "properties": {"name": "Nicaragua", "min_label": 4.0, "max_label": 9.0}}, {"type": "Feature", "geometry": {"type": "Point", "coordinates": [15.9005, 0.142331]}, "properties": {"name": "Congo", "min_label": 4.0, "max_label": 9.0}}, {"type": "Feature", "geometry": {"type": "Point", "coordinates": [23.458829, -1.858167]}, "properties": {"name": "Dem. Rep. Congo", "min_label": 2.0, "max_label": 7.0}}, {"type": "Feature", "geometry": {"type": "Point", "coordinates": [90.040294, 27.536685]}, "properties": {"name": "Bhutan", "min_label": 4.0, "max_label": 9.0}}, {"type": "Feature", "geometry": {"type": "Point", "coordinates": [32.140865, 49.724739]}, "properties": {"name": "Ukraine", "min_label": 2.7, "max_label": 7.0}}, {"type": "Feature", "geometry": {"type": "Point", "coordinates": [28.417701, 53.821888]}, "properties": {"name": "Belarus", "min_label": 3.0, "max_label": 8.0}}, {"type": "Feature", "geometry": {"type": "Point", "coordinates": [17.108166, -20.575298]}, "properties": {"name": "Namibia", "min_label": 3.0, "max_label": 7.5}}, {"type": "Feature", "geometry": {"type": "Point", "coordinates": [23.665734, -29.708776]}, "properties": {"name": "South Africa", "min_label": 1.7, "max_label": 6.7}}, {"type": "Feature", "geometry": {"type": "Point", "coordinates": [-63.049399, 18.081302]}, "properties": {"name": "St-Martin", "min_label": 5.0, "max_label": 10.0}}, {"type": "Feature", "geometry": {"type": "Point", "coordinates": [-63.070133, 18.04088]}, "properties": {"name": "Sint Maarten", "min_label": 5.0, "max_label": 10.0}}, {"type": "Feature", "geometry": {"type": "Point", "coordinates": [57.336553, 22.120427]}, "properties": {"name": "Oman", "min_label": 4.0, "max_label": 9.0}}, {"type": "Feature", "geometry": {"type": "Point", "coordinates": [64.005429, 41.693603]}, "properties": {"name": "Uzbekistan", "min_label": 3.0, "max_label": 8.0}}, {"type": "Feature", "geometry": {"type": "Point", "coordinates": [68.685548, 49.054149]}, "properties": {"name": "Kazakhstan", "min_label": 2.7, "max_label": 7.0}}, {"type": "Feature", "geometry": {"type": "Point", "coordinates": [72.587276, 38.199835]}, "properties": {"name": "Tajikistan", "min_label": 4.0, "max_label": 9.0}}, {"type": "Feature", "geometry": {"type": "Point", "coordinates": [24.089932, 55.103703]}, "properties": {"name": "Lithuania", "min_label": 4.0, "max_label": 9.0}}, {"type": "Feature", "geometry": {"type": "Point", "coordinates": [-49.55945, -12.098687]}, "properties": {"name": "Brazil", "min_label": 1.7, "max_label": 5.7}}, {"type": "Feature", "geometry": {"type": "Point", "coordinates": [-55.966942, -32.961127]}, "properties": {"name": "Uruguay", "min_label": 3.0, "max_label": 8.0}}, {"type": "Feature", "geometry": {"type": "Point", "coordinates": [104.150405, 45.997488]}, "properties": {"name": "Mongolia", "min_label": 3.0, "max_label": 7.0}}, {"type": "Feature", "geometry": {"type": "Point", "coordinates": [44.686469, 58.249357]}, "properties": {"name": "Russia", "min_label": 1.7, "max_label": 5.2}}, {"type": "Feature", "geometry": {"type": "Point", "coordinates": [15.377555, 49.882364]}, "properties": {"name": "Czechia", "min_label": 4.0, "max_label": 9.0}}, {"type": "Feature", "geometry": {"type": "Point", "coordinates": [9.678348, 50.961733]}, "properties": {"name": "Germany", "min_label": 1.7, "max_label": 6.7}}, {"type": "Feature", "geometry": {"type": "Point", "coordinates": [25.867126, 58.724865]}, "properties": {"name": "Estonia", "min_label": 3.0, "max_label": 8.0}}, {"type": "Feature", "geometry": {"type": "Point", "coordinates": [25.458723, 57.066872]}, "properties": {"name": "Latvia", "min_label": 4.0, "max_label": 9.0}}, {"type": "Feature", "geometry": {"type": "Point", "coordinates": [9.679975, 61.357092]}, "properties": {"name": "Norway", "min_label": 3.0, "max_label": 7.0}}, {"type": "Feature", "geometry": {"type": "Point", "coordinates": [19.01705, 65.85918]}, "properties": {"name": "Sweden", "min_label": 2.0, "max_label": 7.0}}, {"type": "Feature", "geometry": {"type": "Point", "coordinates": [27.276449, 63.252361]}, "properties": {"name": "Finland", "min_label": 3.0, "max_label": 8.0}}, {"type": "Feature", "geometry": {"type": "Point", "coordinates": [105.387292, 21.715416]}, "properties": {"name": "Vietnam", "min_label": 2.0, "max_label": 7.0}}, {"type": "Feature", "geometry": {"type": "Point", "coordinates": [104.50487, 12.647584]}, "properties": {"name": "Cambodia", "min_label": 3.0, "max_label": 8.0}}, {"type": "Feature", "geometry": {"type": "Point", "coordinates": [6.07762, 49.733732]}, "properties": {"name": "Luxembourg", "min_label": 5.7, "max_label": 10.0}}, {"type": "Feature", "geometry": {"type": "Point", "coordinates": [54.547256, 23.466285]}, "properties": {"name": "United Arab Emirates", "min_label": 4.0, "max_label": 9.0}}, {"type": "Feature", "geometry": {"type": "Point", "coordinates": [4.800448, 50.785392]}, "properties": {"name": "Belgium", "min_label": 4.0, "max_label": 9.0}}, {"type": "Feature", "geometry": {"type": "Point", "coordinates": [43.735724, 41.870087]}, "properties": {"name": "Georgia", "min_label": 4.0, "max_label": 9.0}}, {"type": "Feature", "geometry": {"type": "Point", "coordinates": [21.555839, 41.558223]}, "properties": {"name": "North Macedonia", "min_label": 5.0, "max_label": 10.0}}, {"type": "Feature", "geometry": {"type": "Point", "coordinates": [20.11384, 40.654855]}, "properties": {"name": "Albania", "min_label": 5.0, "max_label": 10.0}}, {"type": "Feature", "geometry": {"type": "Point", "coordinates": [47.210994, 40.402387]}, "properties": {"name": "Azerbaijan", "min_label": 4.0, "max_label": 9.0}}, {"type": "Feature", "geometry": {"type": "Point", "coordinates": [20.860719, 42.593587]}, "properties": {"name": "Kosovo", "min_label": 5.0, "max_label": 10.0}}, {"type": "Feature", "geometry": {"type": "Point", "coordinates": [34.508268, 39.345388]}, "properties": {"name": "Turkey", "min_label": 2.0, "max_label": 7.0}}, {"type": "Feature", "geometry": {"type": "Point", "coordinates": [-3.464718, 40.090953]}, "properties": {"name": "Spain", "min_label": 2.0, "max_label": 7.0}}, {"type": "Feature", "geometry": {"type": "Point", "coordinates": [102.533912, 19.431821]}, "properties": {"name": "Laos", "min_label": 4.0, "max_label": 9.0}}, {"type": "Feature", "geometry": {"type": "Point", "coordinates": [74.532637, 41.66854]}, "properties": {"name": "Kyrgyzstan", "min_label": 3.0, "max_label": 8.0}}, {"type": "Feature", "geometry": {"type": "Point", "coordinates": [44.800564, 40.459077]}, "properties": {"name": "Armenia", "min_label": 5.0, "max_label": 10.0}}, {"type": "Feature", "geometry": {"type": "Point", "coordinates": [9.018163, 55.966965]}, "properties": {"name": "Denmark", "min_label": 3.0, "max_label": 8.0}}, {"type": "Feature", "geometry": {"type": "Point", "coordinates": [18.011015, 26.638944]}, "properties": {"name": "Libya", "min_label": 3.0, "max_label": 8.0}}, {"type": "Feature", "geometry": {"type": "Point", "coordinates": [9.007881, 33.687263]}, "properties": {"name": "Tunisia", "min_label": 3.0, "max_label": 8.0}}, {"type": "Feature", "geometry": {"type": "Point", "coordinates": [24.972624, 45.733237]}, "properties": {"name": "Romania", "min_label": 3.0, "max_label": 8.0}}, {"type": "Feature", "geometry": {"type": "Point", "coordinates": [19.447867, 47.086841]}, "properties": {"name": "Hungary", "min_label": 4.0, "max_label": 9.0}}, {"type": "Feature", "geometry": {"type": "Point", "coordinates": [19.049868, 48.734044]}, "properties": {"name": "Slovakia", "min_label": 4.0, "max_label": 9.0}}, {"type": "Feature", "geometry": {"type": "Point", "coordinates": [19.490468, 51.990316]}, "properties": {"name": "Poland", "min_label": 2.5, "max_label": 7.0}}, {"type": "Feature", "geometry": {"type": "Point", "coordinates": [-7.798588, 53.078726]}, "properties": {"name": "Ireland", "min_label": 3.0, "max_label": 8.0}}, {"type": "Feature", "geometry": {"type": "Point", "coordinates": [-2.116346, 54.402739]}, "properties": {"name": "United Kingdom", "min_label": 1.7, "max_label": 6.7}}, {"type": "Feature", "geometry": {"type": "Point", "coordinates": [21.72568, 39.492763]}, "properties": {"name": "Greece", "min_label": 2.7, "max_label": 8.0}}, {"type": "Feature", "geometry": {"type": "Point", "coordinates": [26.395298, -14.660804]}, "properties": {"name": "Zambia", "min_label": 3.0, "max_label": 8.0}}, {"type": "Feature", "geometry": {"type": "Point", "coordinates": [-11.763677, 8.617449]}, "properties": {"name": "Sierra Leone", "min_label": 4.0, "max_label": 9.0}}, {"type": "Feature", "geometry": {"type": "Point", "coordinates": [-10.016402, 10.618516]}, "properties": {"name": "Guinea", "min_label": 3.0, "max_label": 8.0}}, {"type": "Feature", "geometry": {"type": "Point", "coordinates": [-9.460379, 6.447177]}, "properties": {"name": "Liberia", "min_label": 4.0, "max_label": 9.0}}, {"type": "Feature", "geometry": {"type": "Point", "coordinates": [20.906897, 6.989681]}, "properties": {"name": "Central African Rep.", "min_label": 4.0, "max_label": 9.0}}, {"type": "Feature", "geometry": {"type": "Point", "coordinates": [29.260657, 16.330746]}, "properties": {"name": "Sudan", "min_label": 2.5, "max_label": 8.0}}, {"type": "Feature", "geometry": {"type": "Point", "coordinates": [42.498825, 11.976343]}, "properties": {"name": "Djibouti", "min_label": 4.0, "max_label": 9.0}}, {"type": "Feature", "geometry": {"type": "Point", "coordinates": [38.285566, 15.787401]}, "properties": {"name": "Eritrea", "min_label": 4.0, "max_label": 9.0}}, {"type": "Feature", "geometry": {"type": "Point", "coordinates": [14.130515, 47.518859]}, "properties": {"name": "Austria", "min_label": 3.0, "max_label": 8.0}}, {"type": "Feature", "geometry": {"type": "Point", "coordinates": [43.26181, 33.09403]}, "properties": {"name": "Iraq", "min_label": 3.0, "max_label": 7.5}}, {"type": "Feature", "geometry": {"type": "Point", "coordinates": [11.076907, 44.732482]}, "properties": {"name": "Italy", "min_label": 2.0, "max_label": 7.0}}, {"type": "Feature", "geometry": {"type": "Point", "coordinates": [7.463965, 46.719114]}, "properties": {"name": "Switzerland", "min_label": 4.0, "max_label": 9.0}}, {"type": "Feature", "geometry": {"type": "Point", "coordinates": [54.931495, 32.166225]}, "properties": {"name": "Iran", "min_label": 2.5, "max_label": 6.7}}, {"type": "Feature", "geometry": {"type": "Point", "coordinates": [5.61144, 52.422211]}, "properties": {"name": "Netherlands", "min_label": 4.0, "max_label": 10.0}}, {"type": "Feature", "geometry": {"type": "Point", "coordinates": [9.559439, 47.111405]}, "properties": {"name": "Liechtenstein", "min_label": 5.0, "max_label": 10.0}}, {"type": "Feature", "geometry": {"type": "Point", "coordinates": [-5.568618, 7.49139]}, "properties": {"name": "C\u00f4te d'Ivoire", "min_label": 2.5, "max_label": 8.0}}, {"type": "Feature", "geometry": {"type": "Point", "coordinates": [20.787989, 44.189919]}, "properties": {"name": "Serbia", "min_label": 4.0, "max_label": 7.0}}, {"type": "Feature", "geometry": {"type": "Point", "coordinates": [-2.038455, 18.692713]}, "properties": {"name": "Mali", "min_label": 3.0, "max_label": 7.0}}, {"type": "Feature", "geometry": {"type": "Point", "coordinates": [-14.778586, 15.138125]}, "properties": {"name": "Senegal", "min_label": 2.7, "max_label": 8.0}}, {"type": "Feature", "geometry": {"type": "Point", "coordinates": [7.50322, 9.439799]}, "properties": {"name": "Nigeria", "min_label": 1.7, "max_label": 6.7}}, {"type": "Feature", "geometry": {"type": "Point", "coordinates": [2.352018, 10.324775]}, "properties": {"name": "Benin", "min_label": 4.0, "max_label": 9.0}}, {"type": "Feature", "geometry": {"type": "Point", "coordinates": [17.984249, -12.182762]}, "properties": {"name": "Angola", "min_label": 3.0, "max_label": 7.0}}, {"type": "Feature", "geometry": {"type": "Point", "coordinates": [16.37241, 45.805799]}, "properties": {"name": "Croatia", "min_label": 4.0, "max_label": 9.0}}, {"type": "Feature", "geometry": {"type": "Point", "coordinates": [14.915312, 46.06076]}, "properties": {"name": "Slovenia", "min_label": 5.0, "max_label": 10.0}}, {"type": "Feature", "geometry": {"type": "Point", "coordinates": [51.143509, 25.237383]}, "properties": {"name": "Qatar", "min_label": 4.0, "max_label": 9.0}}, {"type": "Feature", "geometry": {"type": "Point", "coordinates": [44.6996, 23.806908]}, "properties": {"name": "Saudi Arabia", "min_label": 1.7, "max_label": 7.0}}, {"type": "Feature", "geometry": {"type": "Point", "coordinates": [24.179216, -22.102634]}, "properties": {"name": "Botswana", "min_label": 4.0, "max_label": 9.0}}, {"type": "Feature", "geometry": {"type": "Point", "coordinates": [29.925444, -18.91164]}, "properties": {"name": "Zimbabwe", "min_label": 2.5, "max_label": 8.0}}, {"type": "Feature", "geometry": {"type": "Point", "coordinates": [68.545632, 29.328389]}, "properties": {"name": "Pakistan", "min_label": 2.7, "max_label": 7.0}}, {"type": "Feature", "geometry": {"type": "Point", "coordinates": [25.15709, 42.508785]}, "properties": {"name": "Bulgaria", "min_label": 4.0, "max_label": 9.0}}, {"type": "Feature", "geometry": {"type": "Point", "coordinates": [101.073198, 15.45974]}, "properties": {"name": "Thailand", "min_label": 2.7, "max_label": 8.0}}, {"type": "Feature", "geometry": {"type": "Point", "coordinates": [12.441206, 43.933916]}, "properties": {"name": "San Marino", "min_label": 5.0, "max_label": 10.0}}, {"type": "Feature", "geometry": {"type": "Point", "coordinates": [-72.224051, 19.263784]}, "properties": {"name": "Haiti", "min_label": 4.0, "max_label": 9.0}}, {"type": "Feature", "geometry": {"type": "Point", "coordinates": [-70.653998, 19.104137]}, "properties": {"name": "Dominican Rep.", "min_label": 4.5, "max_label": 9.5}}, {"type": "Feature", "geometry": {"type": "Point", "coordinates": [18.645041, 15.142959]}, "properties": {"name": "Chad", "min_label": 3.0, "max_label": 8.0}}, {"type": "Feature", "geometry": {"type": "Point", "coordinates": [47.313999, 29.413628]}, "properties": {"name": "Kuwait", "min_label": 5.0, "max_label": 10.0}}, {"type": "Feature", "geometry": {"type": "Point", "coordinates": [-88.890124, 13.685371]}, "properties": {"name": "El Salvador", "min_label": 5.0, "max_label": 10.0}}, {"type": "Feature", "geometry": {"type": "Point", "coordinates": [-90.497134, 14.982133]}, "properties": {"name": "Guatemala", "min_label": 3.0, "max_label": 8.0}}, {"type": "Feature", "geometry": {"type": "Point", "coordinates": [125.854679, -8.803705]}, "properties": {"name": "Timor-Leste", "min_label": 4.0, "max_label": 9.0}}, {"type": "Feature", "geometry": {"type": "Point", "coordinates": [114.551943, 4.448298]}, "properties": {"name": "Brunei", "min_label": 4.0, "max_label": 9.0}}, {"type": "Feature", "geometry": {"type": "Point", "coordinates": [7.398291, 43.739652]}, "properties": {"name": "Monaco", "min_label": 5.0, "max_label": 10.0}}, {"type": "Feature", "geometry": {"type": "Point", "coordinates": [2.808241, 27.397406]}, "properties": {"name": "Algeria", "min_label": 2.5, "max_label": 7.0}}, {"type": "Feature", "geometry": {"type": "Point", "coordinates": [37.83789, -13.94323]}, "properties": {"name": "Mozambique", "min_label": 3.0, "max_label": 8.0}}, {"type": "Feature", "geometry": {"type": "Point", "coordinates": [31.467264, -26.533676]}, "properties": {"name": "eSwatini", "min_label": 4.0, "max_label": 9.0}}, {"type": "Feature", "geometry": {"type": "Point", "coordinates": [29.917086, -3.332836]}, "properties": {"name": "Burundi", "min_label": 4.0, "max_label": 9.0}}, {"type": "Feature", "geometry": {"type": "Point", "coordinates": [30.103894, -1.897196]}, "properties": {"name": "Rwanda", "min_label": 3.0, "max_label": 8.0}}, {"type": "Feature", "geometry": {"type": "Point", "coordinates": [95.804497, 21.573855]}, "properties": {"name": "Myanmar", "min_label": 3.0, "max_label": 8.0}}, {"type": "Feature", "geometry": {"type": "Point", "coordinates": [89.684963, 24.214956]}, "properties": {"name": "Bangladesh", "min_label": 3.0, "max_label": 8.0}}, {"type": "Feature", "geometry": {"type": "Point", "coordinates": [1.539409, 42.547643]}, "properties": {"name": "Andorra", "min_label": 5.0, "max_label": 10.0}}, {"type": "Feature", "geometry": {"type": "Point", "coordinates": [66.496586, 34.164262]}, "properties": {"name": "Afghanistan", "min_label": 3.0, "max_label": 7.0}}, {"type": "Feature", "geometry": {"type": "Point", "coordinates": [19.143727, 42.803101]}, "properties": {"name": "Montenegro", "min_label": 5.0, "max_label": 10.0}}, {"type": "Feature", "geometry": {"type": "Point", "coordinates": [18.06841, 44.091051]}, "properties": {"name": "Bosnia and Herz.", "min_label": 4.5, "max_label": 6.8}}, {"type": "Feature", "geometry": {"type": "Point", "coordinates": [32.948555, 1.972589]}, "properties": {"name": "Uganda", "min_label": 3.0, "max_label": 8.0}}, {"type": "Feature", "geometry": {"type": "Point", "coordinates": [-75.117277, 19.918398]}, "properties": {"name": "USNB Guantanamo Bay", "min_label": 6.0, "max_label": 11.0}}, {"type": "Feature", "geometry": {"type": "Point", "coordinates": [-77.975855, 21.334024]}, "properties": {"name": "Cuba", "min_label": 2.7, "max_label": 8.0}}, {"type": "Feature", "geometry": {"type": "Point", "coordinates": [-86.887604, 14.794801]}, "properties": {"name": "Honduras", "min_label": 4.5, "max_label": 9.5}}, {"type": "Feature", "geometry": {"type": "Point", "coordinates": [-78.188375, -1.259076]}, "properties": {"name": "Ecuador", "min_label": 3.0, "max_label": 8.0}}, {"type": "Feature", "geometry": {"type": "Point", "coordinates": [-73.174347, 3.373111]}, "properties": {"name": "Colombia", "min_label": 3.0, "max_label": 7.0}}, {"type": "Feature", "geometry": {"type": "Point", "coordinates": [-60.146394, -21.674509]}, "properties": {"name": "Paraguay", "min_label": 3.0, "max_label": 8.0}}, {"type": "Feature", "geometry": {"type": "Point", "coordinates": [-57.623042, -30.187555]}, "properties": {"name": "Brazilian I.", "min_label": 7.7, "max_label": 9.0}}, {"type": "Feature", "geometry": {"type": "Point", "coordinates": [-8.271754, 39.606675]}, "properties": {"name": "Portugal", "min_label": 3.0, "max_label": 8.0}}, {"type": "Feature", "geometry": {"type": "Point", "coordinates": [28.487904, 47.434999]}, "properties": {"name": "Moldova", "min_label": 5.0, "max_label": 10.0}}, {"type": "Feature", "geometry": {"type": "Point", "coordinates": [58.676647, 39.855246]}, "properties": {"name": "Turkmenistan", "min_label": 3.0, "max_label": 8.0}}, {"type": "Feature", "geometry": {"type": "Point", "coordinates": [36.375991, 30.805025]}, "properties": {"name": "Jordan", "min_label": 4.0, "max_label": 9.0}}, {"type": "Feature", "geometry": {"type": "Point", "coordinates": [83.639914, 28.297925]}, "properties": {"name": "Nepal", "min_label": 3.0, "max_label": 8.0}}, {"type": "Feature", "geometry": {"type": "Point", "coordinates": [28.246639, -29.480158]}, "properties": {"name": "Lesotho", "min_label": 4.0, "max_label": 9.0}}, {"type": "Feature", "geometry": {"type": "Point", "coordinates": [12.473488, 4.585041]}, "properties": {"name": "Cameroon", "min_label": 3.0, "max_label": 8.0}}, {"type": "Feature", "geometry": {"type": "Point", "coordinates": [11.835939, -0.437739]}, "properties": {"name": "Gabon", "min_label": 3.0, "max_label": 8.0}}, {"type": "Feature", "geometry": {"type": "Point", "coordinates": [9.504356, 17.446195]}, "properties": {"name": "Niger", "min_label": 3.0, "max_label": 8.0}}, {"type": "Feature", "geometry": {"type": "Point", "coordinates": [-1.36388, 12.673048]}, "properties": {"name": "Burkina Faso", "min_label": 3.0, "max_label": 8.0}}, {"type": "Feature", "geometry": {"type": "Point", "coordinates": [1.058113, 8.80722]}, "properties": {"name": "Togo", "min_label": 5.0, "max_label": 10.0}}, {"type": "Feature", "geometry": {"type": "Point", "coordinates": [-1.036941, 7.717639]}, "properties": {"name": "Ghana", "min_label": 2.7, "max_label": 8.0}}, {"type": "Feature", "geometry": {"type": "Point", "coordinates": [-14.52413, 12.163712]}, "properties": {"name": "Guinea-Bissau", "min_label": 5.0, "max_label": 10.0}}, {"type": "Feature", "geometry": {"type": "Point", "coordinates": [-5.3467, 36.129426]}, "properties": {"name": "Gibraltar", "min_label": 5.0, "max_label": 9.5}}, {"type": "Feature", "geometry": {"type": "Point", "coordinates": [-97.482602, 39.538479]}, "properties": {"name": "United States of America", "min_label": 1.7, "max_label": 5.7}}, {"type": "Feature", "geometry": {"type": "Point", "coordinates": [-101.9107, 60.324287]}, "properties": {"name": "Canada", "min_label": 1.7, "max_label": 5.7}}, {"type": "Feature", "geometry": {"type": "Point", "coordinates": [-102.289448, 23.919988]}, "properties": {"name": "Mexico", "min_label": 2.0, "max_label": 6.7}}, {"type": "Feature", "geometry": {"type": "Point", "coordinates": [-88.712962, 17.202068]}, "properties": {"name": "Belize", "min_label": 5.0, "max_label": 10.0}}, {"type": "Feature", "geometry": {"type": "Point", "coordinates": [-80.352106, 8.72198]}, "properties": {"name": "Panama", "min_label": 4.0, "max_label": 9.0}}, {"type": "Feature", "geometry": {"type": "Point", "coordinates": [-64.599381, 7.182476]}, "properties": {"name": "Venezuela", "min_label": 2.5, "max_label": 7.5}}, {"type": "Feature", "geometry": {"type": "Point", "coordinates": [143.910216, -5.695285]}, "properties": {"name": "Papua New Guinea", "min_label": 2.5, "max_label": 7.5}}, {"type": "Feature", "geometry": {"type": "Point", "coordinates": [29.445837, 26.186173]}, "properties": {"name": "Egypt", "min_label": 1.7, "max_label": 6.7}}, {"type": "Feature", "geometry": {"type": "Point", "coordinates": [45.874383, 15.328226]}, "properties": {"name": "Yemen", "min_label": 3.0, "max_label": 8.0}}, {"type": "Feature", "geometry": {"type": "Point", "coordinates": [-9.740299, 19.587062]}, "properties": {"name": "Mauritania", "min_label": 3.0, "max_label": 8.0}}, {"type": "Feature", "geometry": {"type": "Point", "coordinates": [8.9902, 2.333]}, "properties": {"name": "Eq. Guinea", "min_label": 4.0, "max_label": 9.0}}, {"type": "Feature", "geometry": {"type": "Point", "coordinates": [-14.998318, 13.641721]}, "properties": {"name": "Gambia", "min_label": 5.0, "max_label": 10.0}}, {"type": "Feature", "geometry": {"type": "Point", "coordinates": [114.097769, 22.448829]}, "properties": {"name": "Hong Kong", "min_label": 4.0, "max_label": 9.0}}, {"type": "Feature", "geometry": {"type": "Point", "coordinates": [12.453418, 41.903323]}, "properties": {"name": "Vatican", "min_label": 5.0, "max_label": 10.0}}, {"type": "Feature", "geometry": {"type": "Point", "coordinates": [33.692434, 35.216071]}, "properties": {"name": "N. Cyprus", "min_label": 6.0, "max_label": 10.0}}, {"type": "Feature", "geometry": {"type": "Point", "coordinates": [33.288134, 35.140713]}, "properties": {"name": "Cyprus U.N. Buffer Zone", "min_label": 7.7, "max_label": 11.0}}, {"type": "Feature", "geometry": {"type": "Point", "coordinates": [77.129553, 35.340606]}, "properties": {"name": "Siachen Glacier", "min_label": 6.5, "max_label": 9.5}}, {"type": "Feature", "geometry": {"type": "Point", "coordinates": [63.383897, 45.978332]}, "properties": {"name": "Baikonur", "min_label": 6.0, "max_label": 9.5}}, {"type": "Feature", "geometry": {"type": "Point", "coordinates": [32.979025, 34.60083]}, "properties": {"name": "Akrotiri", "min_label": 6.5, "max_label": 11.0}}, {"type": "Feature", "geometry": {"type": "Point", "coordinates": [-73.31378, -49.511034]}, "properties": {"name": "Southern Patagonian Ice Field", "min_label": 7.7, "max_label": 9.0}}, {"type": "Feature", "geometry": {"type": "Point", "coordinates": [33.673428, 21.860442]}, "properties": {"name": "Bir Tawil", "min_label": 7.0, "max_label": 9.0}}, {"type": "Feature", "geometry": {"type": "Point", "coordinates": [35.885455, -79.843222]}, "properties": {"name": "Antarctica", "min_label": 4.0, "max_label": 9.0}}, {"type": "Feature", "geometry": {"type": "Point", "coordinates": [134.04972, -24.129522]}, "properties": {"name": "Australia", "min_label": 1.7, "max_label": 5.7}}, {"type": "Feature", "geometry": {"type": "Point", "coordinates": [-39.335251, 74.319387]}, "properties": {"name": "Greenland", "min_label": 1.7, "max_label": 6.7}}, {"type": "Feature", "geometry": {"type": "Point", "coordinates": [177.975427, -17.826099]}, "properties": {"name": "Fiji", "min_label": 3.0, "max_label": 8.0}}, {"type": "Feature", "geometry": {"type": "Point", "coordinates": [172.787, -39.759]}, "properties": {"name": "New Zealand", "min_label": 2.0, "max_label": 6.7}}, {"type": "Feature", "geometry": {"type": "Point", "coordinates": [165.084004, -21.064697]}, "properties": {"name": "New Caledonia", "min_label": 4.6, "max_label": 8.0}}, {"type": "Feature", "geometry": {"type": "Point", "coordinates": [46.704241, -18.628288]}, "properties": {"name": "Madagascar", "min_label": 2.7, "max_label": 7.0}}, {"type": "Feature", "geometry": {"type": "Point", "coordinates": [122.465, 11.198]}, "properties": {"name": "Philippines", "min_label": 2.5, "max_label": 7.0}}, {"type": "Feature", "geometry": {"type": "Point", "coordinates": [80.704823, 7.581097]}, "properties": {"name": "Sri Lanka", "min_label": 3.0, "max_label": 8.0}}, {"type": "Feature", "geometry": {"type": "Point", "coordinates": [-68.920578, 12.145039]}, "properties": {"name": "Cura\u00e7ao", "min_label": 5.0, "max_label": 10.0}}, {"type": "Feature", "geometry": {"type": "Point", "coordinates": [-69.972795, 12.5174]}, "properties": {"name": "Aruba", "min_label": 5.0, "max_label": 10.0}}, {"type": "Feature", "geometry": {"type": "Point", "coordinates": [-77.146688, 26.401789]}, "properties": {"name": "Bahamas", "min_label": 4.0, "max_label": 9.0}}, {"type": "Feature", "geometry": {"type": "Point", "coordinates": [-71.752704, 21.81663]}, "properties": {"name": "Turks and Caicos Is.", "min_label": 5.0, "max_label": 10.0}}, {"type": "Feature", "geometry": {"type": "Point", "coordinates": [120.868204, 23.652408]}, "properties": {"name": "Taiwan", "min_label": 4.5, "max_label": 8.0}}, {"type": "Feature", "geometry": {"type": "Point", "coordinates": [138.44217, 36.142538]}, "properties": {"name": "Japan", "min_label": 1.7, "max_label": 7.0}}, {"type": "Feature", "geometry": {"type": "Point", "coordinates": [-56.332352, 47.040344]}, "properties": {"name": "St. Pierre and Miquelon", "min_label": 5.0, "max_label": 10.0}}, {"type": "Feature", "geometry": {"type": "Point", "coordinates": [-18.673711, 64.779286]}, "properties": {"name": "Iceland", "min_label": 2.0, "max_label": 7.0}}, {"type": "Feature", "geometry": {"type": "Point", "coordinates": [-128.317536, -24.364576]}, "properties": {"name": "Pitcairn Is.", "min_label": 5.0, "max_label": 9.0}}, {"type": "Feature", "geometry": {"type": "Point", "coordinates": [-149.46157, -17.628081]}, "properties": {"name": "Fr. Polynesia", "min_label": 3.5, "max_label": 8.5}}, {"type": "Feature", "geometry": {"type": "Point", "coordinates": [69.122136, -49.303721]}, "properties": {"name": "Fr. S. Antarctic Lands", "min_label": 4.0, "max_label": 9.0}}, {"type": "Feature", "geometry": {"type": "Point", "coordinates": [55.480175, -4.676659]}, "properties": {"name": "Seychelles", "min_label": 5.0, "max_label": 10.0}}, {"type": "Feature", "geometry": {"type": "Point", "coordinates": [-157.384577, 1.820437]}, "properties": {"name": "Kiribati", "min_label": 5.0, "max_label": 10.0}}, {"type": "Feature", "geometry": {"type": "Point", "coordinates": [171.193609, 7.082568]}, "properties": {"name": "Marshall Is.", "min_label": 5.0, "max_label": 10.0}}, {"type": "Feature", "geometry": {"type": "Point", "coordinates": [-60.9184, 10.9989]}, "properties": {"name": "Trinidad and Tobago", "min_label": 4.5, "max_label": 9.5}}, {"type": "Feature", "geometry": {"type": "Point", "coordinates": [-61.680461, 12.113156]}, "properties": {"name": "Grenada", "min_label": 4.0, "max_label": 9.0}}, {"type": "Feature", "geometry": {"type": "Point", "coordinates": [-61.3359, 13.0879]}, "properties": {"name": "St. Vin. and Gren.", "min_label": 5.0, "max_label": 10.0}}, {"type": "Feature", "geometry": {"type": "Point", "coordinates": [-59.568966, 13.163709]}, "properties": {"name": "Barbados", "min_label": 4.5, "max_label": 9.5}}, {"type": "Feature", "geometry": {"type": "Point", "coordinates": [-60.980094, 13.892371]}, "properties": {"name": "Saint Lucia", "min_label": 5.0, "max_label": 9.5}}, {"type": "Feature", "geometry": {"type": "Point", "coordinates": [-61.344958, 15.458829]}, "properties": {"name": "Dominica", "min_label": 4.0, "max_label": 9.0}}, {"type": "Feature", "geometry": {"type": "Point", "coordinates": [166.644535, 19.285663]}, "properties": {"name": "U.S. Minor Outlying Is.", "min_label": 7.0, "max_label": 11.0}}, {"type": "Feature", "geometry": {"type": "Point", "coordinates": [-62.188252, 16.73717]}, "properties": {"name": "Montserrat", "min_label": 5.0, "max_label": 10.0}}, {"type": "Feature", "geometry": {"type": "Point", "coordinates": [-61.790612, 17.352249]}, "properties": {"name": "Antigua and Barb.", "min_label": 5.0, "max_label": 9.5}}, {"type": "Feature", "geometry": {"type": "Point", "coordinates": [-62.757975, 17.336558]}, "properties": {"name": "St. Kitts and Nevis", "min_label": 5.0, "max_label": 10.0}}, {"type": "Feature", "geometry": {"type": "Point", "coordinates": [-64.779172, 17.746706]}, "properties": {"name": "U.S. Virgin Is.", "min_label": 5.0, "max_label": 10.0}}, {"type": "Feature", "geometry": {"type": "Point", "coordinates": [-62.833193, 17.901987]}, "properties": {"name": "St-Barth\u00e9lemy", "min_label": 5.7, "max_label": 10.0}}, {"type": "Feature", "geometry": {"type": "Point", "coordinates": [-66.481065, 18.234668]}, "properties": {"name": "Puerto Rico", "min_label": 3.0, "max_label": 8.0}}, {"type": "Feature", "geometry": {"type": "Point", "coordinates": [-63.026361, 18.242979]}, "properties": {"name": "Anguilla", "min_label": 5.0, "max_label": 10.0}}, {"type": "Feature", "geometry": {"type": "Point", "coordinates": [-64.63661, 18.426606]}, "properties": {"name": "British Virgin Is.", "min_label": 5.0, "max_label": 9.5}}, {"type": "Feature", "geometry": {"type": "Point", "coordinates": [-77.318767, 18.137124]}, "properties": {"name": "Jamaica", "min_label": 4.0, "max_label": 9.0}}, {"type": "Feature", "geometry": {"type": "Point", "coordinates": [-81.24055, 19.319862]}, "properties": {"name": "Cayman Is.", "min_label": 5.0, "max_label": 9.5}}, {"type": "Feature", "geometry": {"type": "Point", "coordinates": [-64.763573, 32.296592]}, "properties": {"name": "Bermuda", "min_label": 4.0, "max_label": 9.0}}, {"type": "Feature", "geometry": {"type": "Point", "coordinates": [73.50521, -53.103462]}, "properties": {"name": "Heard I. and McDonald Is.", "min_label": 4.5, "max_label": 9.5}}, {"type": "Feature", "geometry": {"type": "Point", "coordinates": [-5.71262, -15.950487]}, "properties": {"name": "Saint Helena", "min_label": 5.0, "max_label": 10.0}}, {"type": "Feature", "geometry": {"type": "Point", "coordinates": [57.565848, -20.299506]}, "properties": {"name": "Mauritius", "min_label": 4.0, "max_label": 9.0}}, {"type": "Feature", "geometry": {"type": "Point", "coordinates": [43.318094, -11.727683]}, "properties": {"name": "Comoros", "min_label": 4.0, "max_label": 9.0}}, {"type": "Feature", "geometry": {"type": "Point", "coordinates": [7.021, 0.9709]}, "properties": {"name": "S\u00e3o Tom\u00e9 and Principe", "min_label": 5.0, "max_label": 10.0}}, {"type": "Feature", "geometry": {"type": "Point", "coordinates": [-23.639434, 15.074761]}, "properties": {"name": "Cabo Verde", "min_label": 4.0, "max_label": 9.0}}, {"type": "Feature", "geometry": {"type": "Point", "coordinates": [14.433005, 35.892886]}, "properties": {"name": "Malta", "min_label": 4.0, "max_label": 9.0}}, {"type": "Feature", "geometry": {"type": "Point", "coordinates": [-2.090146, 49.220808]}, "properties": {"name": "Jersey", "min_label": 5.0, "max_label": 10.0}}, {"type": "Feature", "geometry": {"type": "Point", "coordinates": [-2.561736, 49.463533]}, "properties": {"name": "Guernsey", "min_label": 5.0, "max_label": 10.0}}, {"type": "Feature", "geometry": {"type": "Point", "coordinates": [-4.530069, 54.220833]}, "properties": {"name": "Isle of Man", "min_label": 5.0, "max_label": 10.0}}, {"type": "Feature", "geometry": {"type": "Point", "coordinates": [19.869671, 60.156467]}, "properties": {"name": "\u00c5land", "min_label": 5.0, "max_label": 10.0}}, {"type": "Feature", "geometry": {"type": "Point", "coordinates": [-7.058429, 62.185604]}, "properties": {"name": "Faeroe Is.", "min_label": 4.0, "max_label": 9.0}}, {"type": "Feature", "geometry": {"type": "Point", "coordinates": [105.67259, -10.490789]}, "properties": {"name": "Indian Ocean Ter.", "min_label": 5.0, "max_label": 9.5}}, {"type": "Feature", "geometry": {"type": "Point", "coordinates": [71.348349, -6.190826]}, "properties": {"name": "Br. Indian Ocean Ter.", "min_label": 5.0, "max_label": 9.5}}, {"type": "Feature", "geometry": {"type": "Point", "coordinates": [103.816925, 1.366587]}, "properties": {"name": "Singapore", "min_label": 4.0, "max_label": 9.0}}, {"type": "Feature", "geometry": {"type": "Point", "coordinates": [167.954531, -29.033042]}, "properties": {"name": "Norfolk Island", "min_label": 4.5, "max_label": 9.5}}, {"type": "Feature", "geometry": {"type": "Point", "coordinates": [-159.785675, -21.215993]}, "properties": {"name": "Cook Is.", "min_label": 4.0, "max_label": 9.0}}, {"type": "Feature", "geometry": {"type": "Point", "coordinates": [-175.163014, -21.210026]}, "properties": {"name": "Tonga", "min_label": 4.0, "max_label": 9.0}}, {"type": "Feature", "geometry": {"type": "Point", "coordinates": [-178.137436, -14.286415]}, "properties": {"name": "Wallis and Futuna Is.", "min_label": 4.7, "max_label": 9.0}}, {"type": "Feature", "geometry": {"type": "Point", "coordinates": [-172.438241, -13.639139]}, "properties": {"name": "Samoa", "min_label": 3.0, "max_label": 8.0}}, {"type": "Feature", "geometry": {"type": "Point", "coordinates": [159.170468, -8.029548]}, "properties": {"name": "Solomon Is.", "min_label": 3.0, "max_label": 8.0}}, {"type": "Feature", "geometry": {"type": "Point", "coordinates": [179.209587, -8.513717]}, "properties": {"name": "Tuvalu", "min_label": 5.0, "max_label": 10.0}}, {"type": "Feature", "geometry": {"type": "Point", "coordinates": [73.507554, 4.174441]}, "properties": {"name": "Maldives", "min_label": 4.0, "max_label": 9.0}}, {"type": "Feature", "geometry": {"type": "Point", "coordinates": [166.932644, -0.520261]}, "properties": {"name": "Nauru", "min_label": 5.0, "max_label": 10.0}}, {"type": "Feature", "geometry": {"type": "Point", "coordinates": [158.234019, 6.887553]}, "properties": {"name": "Micronesia", "min_label": 5.0, "max_label": 10.0}}, {"type": "Feature", "geometry": {"type": "Point", "coordinates": [-31.063179, -55.683402]}, "properties": {"name": "S. Geo. and the Is.", "min_label": 5.0, "max_label": 9.0}}, {"type": "Feature", "geometry": {"type": "Point", "coordinates": [-58.738602, -51.608913]}, "properties": {"name": "Falkland Is.", "min_label": 4.5, "max_label": 9.0}}, {"type": "Feature", "geometry": {"type": "Point", "coordinates": [166.908762, -15.37153]}, "properties": {"name": "Vanuatu", "min_label": 4.0, "max_label": 9.0}}, {"type": "Feature", "geometry": {"type": "Point", "coordinates": [-169.862565, -19.045956]}, "properties": {"name": "Niue", "min_label": 4.0, "max_label": 9.0}}, {"type": "Feature", "geometry": {"type": "Point", "coordinates": [-170.747153, -14.32671]}, "properties": {"name": "American Samoa", "min_label": 4.0, "max_label": 9.0}}, {"type": "Feature", "geometry": {"type": "Point", "coordinates": [134.580157, 7.518252]}, "properties": {"name": "Palau", "min_label": 5.0, "max_label": 10.0}}, {"type": "Feature", "geometry": {"type": "Point", "coordinates": [144.703614, 13.354173]}, "properties": {"name": "Guam", "min_label": 3.0, "max_label": 10.0}}, {"type": "Feature", "geometry": {"type": "Point", "coordinates": [145.734397, 15.188188]}, "properties": {"name": "N. Mariana Is.", "min_label": 5.0, "max_label": 10.0}}, {"type": "Feature", "geometry": {"type": "Point", "coordinates": [50.554816, 26.055972]}, "properties": {"name": "Bahrain", "min_label": 4.0, "max_label": 9.0}}, {"type": "Feature", "geometry": {"type": "Point", "coordinates": [154.390595, -21.029311]}, "properties": {"name": "Coral Sea Is.", "min_label": 4.5, "max_label": 9.5}}, {"type": "Feature", "geometry": {"type": "Point", "coordinates": [115.81956, 10.72954]}, "properties": {"name": "Spratly Is.", "min_label": 6.0, "max_label": 10.0}}, {"type": "Feature", "geometry": {"type": "Point", "coordinates": [-109.22045, 10.297324]}, "properties": {"name": "Clipperton I.", "min_label": 5.0, "max_label": 9.5}}, {"type": "Feature", "geometry": {"type": "Point", "coordinates": [113.556038, 22.129735]}, "properties": {"name": "Macao", "min_label": 4.0, "max_label": 9.0}}, {"type": "Feature", "geometry": {"type": "Point", "coordinates": [123.586368, -12.432571]}, "properties": {"name": "Ashmore and Cartier Is.", "min_label": 4.5, "max_label": 9.5}}, {"type": "Feature", "geometry": {"type": "Point", "coordinates": [-79.845836, 15.791588]}, "properties": {"name": "Bajo Nuevo Bank", "min_label": 7.0, "max_label": 11.0}}, {"type": "Feature", "geometry": {"type": "Point", "coordinates": [-78.638239, 15.864308]}, "properties": {"name": "Serranilla Bank", "min_label": 7.0, "max_label": 9.5}}, {"type": "Feature", "geometry": {"type": "Point", "coordinates": [117.753812, 15.152039]}, "properties": {"name": "Scarborough Reef", "min_label": 6.0, "max_label": 10.0}}]}